{
    "week": 287,
    "satellites": [
        {
            "Name": "GSAT0208 (GALILEO 11)",
            "Line1": "1 41175U 15079B   24283.93265164  .00000063  00000+0  00000+0 0  9992",
            "Line2": "2 41175  55.4753 118.1583 0001898   9.9866 350.0898  1.70474023 54707",
            "SatelliteNumber": "41175",
            "Classification": "U",
            "LaunchYear": "15",
            "LaunchNumber": "079",
            "PieceOfLaunch": "B",
            "EpochYear": "24",
            "EpochDay": 283.93265164,
            "FirstDerivativeMeanMotion": 6.3e-07,
            "SecondDerivativeMeanMotion": "00000+0",
            "BSTAR": "00000+0",
            "SetNumber": "999",
            "Inclination": 55.4753,
            "RAAN": 118.1583,
            "Eccentricity": 0.0001898,
            "ArgumentOfPerigee": 9.9866,
            "MeanAnomaly": 350.0898,
            "MeanMotion": 1.70474023,
            "RevolutionNumber": "5470"
        },
        {
            "Name": "GSAT0211 (GALILEO 14)",
            "Line1": "1 41549U 16030A   24282.88209769  .00000026  00000+0  00000+0 0  9996",
            "Line2": "2 41549  55.3191 238.6476 0003495 329.7934  30.1680  1.70473152 52165",
            "SatelliteNumber": "41549",
            "Classification": "U",
            "LaunchYear": "16",
            "LaunchNumber": "030",
            "PieceOfLaunch": "A",
            "EpochYear": "24",
            "EpochDay": 282.88209769,
            "FirstDerivativeMeanMotion": 2.6e-07,
            "SecondDerivativeMeanMotion": "00000+0",
            "BSTAR": "00000+0",
            "SetNumber": "999",
            "Inclination": 55.3191,
            "RAAN": 238.6476,
            "Eccentricity": 0.0003495,
            "ArgumentOfPerigee": 329.7934,
            "MeanAnomaly": 30.168,
            "MeanMotion": 1.70473152,
            "RevolutionNumber": "5216"
        },
        {
            "Name": "GSAT0210 (GALILEO 13)",
            "Line1": "1 41550U 16030B   24284.89996052  .00000022  00000+0  00000+0 0  9995",
            "Line2": "2 41550  55.3181 238.5906 0003189 247.0068 112.9423  1.70473450 52179",
            "SatelliteNumber": "41550",
            "Classification": "U",
            "LaunchYear": "16",
            "LaunchNumber": "030",
            "PieceOfLaunch": "B",
            "EpochYear": "24",
            "EpochDay": 284.89996052,
            "FirstDerivativeMeanMotion": 2.2e-07,
            "SecondDerivativeMeanMotion": "00000+0",
            "BSTAR": "00000+0",
            "SetNumber": "999",
            "Inclination": 55.3181,
            "RAAN": 238.5906,
            "Eccentricity": 0.0003189,
            "ArgumentOfPerigee": 247.0068,
            "MeanAnomaly": 112.9423,
            "MeanMotion": 1.7047345,
            "RevolutionNumber": "5217"
        },
        {
            "Name": "GSAT0207 (GALILEO 15)",
            "Line1": "1 41859U 16069A   24284.59295353  .00000064  00000+0  00000+0 0  9998",
            "Line2": "2 41859  55.1425 118.1158 0001937 326.7855  33.2759  1.70474090 48926",
            "SatelliteNumber": "41859",
            "Classification": "U",
            "LaunchYear": "16",
            "LaunchNumber": "069",
            "PieceOfLaunch": "A",
            "EpochYear": "24",
            "EpochDay": 284.59295353,
            "FirstDerivativeMeanMotion": 6.4e-07,
            "SecondDerivativeMeanMotion": "00000+0",
            "BSTAR": "00000+0",
            "SetNumber": "999",
            "Inclination": 55.1425,
            "RAAN": 118.1158,
            "Eccentricity": 0.0001937,
            "ArgumentOfPerigee": 326.7855,
            "MeanAnomaly": 33.2759,
            "MeanMotion": 1.7047409,
            "RevolutionNumber": "4892"
        },
        {
            "Name": "GSAT0212 (GALILEO 16)",
            "Line1": "1 41860U 16069B   24283.27395781  .00000060  00000+0  00000+0 0  9996",
            "Line2": "2 41860  55.1394 118.1485 0002278  32.5282 327.5581  1.70474293 49154",
            "SatelliteNumber": "41860",
            "Classification": "U",
            "LaunchYear": "16",
            "LaunchNumber": "069",
            "PieceOfLaunch": "B",
            "EpochYear": "24",
            "EpochDay": 283.27395781,
            "FirstDerivativeMeanMotion": 6e-07,
            "SecondDerivativeMeanMotion": "00000+0",
            "BSTAR": "00000+0",
            "SetNumber": "999",
            "Inclination": 55.1394,
            "RAAN": 118.1485,
            "Eccentricity": 0.0002278,
            "ArgumentOfPerigee": 32.5282,
            "MeanAnomaly": 327.5581,
            "MeanMotion": 1.70474293,
            "RevolutionNumber": "4915"
        },
        {
            "Name": "GSAT0213 (GALILEO 17)",
            "Line1": "1 41861U 16069C   24284.22891713  .00000063  00000+0  00000+0 0  9992",
            "Line2": "2 41861  55.1422 118.1290 0001721 278.5923  81.4611  1.70474643 49033",
            "SatelliteNumber": "41861",
            "Classification": "U",
            "LaunchYear": "16",
            "LaunchNumber": "069",
            "PieceOfLaunch": "C",
            "EpochYear": "24",
            "EpochDay": 284.22891713,
            "FirstDerivativeMeanMotion": 6.3e-07,
            "SecondDerivativeMeanMotion": "00000+0",
            "BSTAR": "00000+0",
            "SetNumber": "999",
            "Inclination": 55.1422,
            "RAAN": 118.129,
            "Eccentricity": 0.0001721,
            "ArgumentOfPerigee": 278.5923,
            "MeanAnomaly": 81.4611,
            "MeanMotion": 1.70474643,
            "RevolutionNumber": "4903"
        },
        {
            "Name": "GSAT0214 (GALILEO 18)",
            "Line1": "1 41862U 16069D   24283.20110827  .00000060  00000+0  00000+0 0  9997",
            "Line2": "2 41862  55.1406 118.1510 0000806 288.7499  71.3136  1.70474346 49147",
            "SatelliteNumber": "41862",
            "Classification": "U",
            "LaunchYear": "16",
            "LaunchNumber": "069",
            "PieceOfLaunch": "D",
            "EpochYear": "24",
            "EpochDay": 283.20110827,
            "FirstDerivativeMeanMotion": 6e-07,
            "SecondDerivativeMeanMotion": "00000+0",
            "BSTAR": "00000+0",
            "SetNumber": "999",
            "Inclination": 55.1406,
            "RAAN": 118.151,
            "Eccentricity": 8.06e-05,
            "ArgumentOfPerigee": 288.7499,
            "MeanAnomaly": 71.3136,
            "MeanMotion": 1.70474346,
            "RevolutionNumber": "4914"
        },
        {
            "Name": "GSAT0215 (GALILEO 19)",
            "Line1": "1 43055U 17079A   24284.27699853  .00000025  00000+0  00000+0 0  9995",
            "Line2": "2 43055  55.2953 238.4297 0002785 279.3319  80.6202  1.70473795 42501",
            "SatelliteNumber": "43055",
            "Classification": "U",
            "LaunchYear": "17",
            "LaunchNumber": "079",
            "PieceOfLaunch": "A",
            "EpochYear": "24",
            "EpochDay": 284.27699853,
            "FirstDerivativeMeanMotion": 2.5e-07,
            "SecondDerivativeMeanMotion": "00000+0",
            "BSTAR": "00000+0",
            "SetNumber": "999",
            "Inclination": 55.2953,
            "RAAN": 238.4297,
            "Eccentricity": 0.0002785,
            "ArgumentOfPerigee": 279.3319,
            "MeanAnomaly": 80.6202,
            "MeanMotion": 1.70473795,
            "RevolutionNumber": "4250"
        },
        {
            "Name": "GSAT0216 (GALILEO 20)",
            "Line1": "1 43056U 17079B   24284.56861084  .00000024  00000+0  00000+0 0  9994",
            "Line2": "2 43056  55.2953 238.4215 0004244 284.7837  75.1526  1.70473907 42490",
            "SatelliteNumber": "43056",
            "Classification": "U",
            "LaunchYear": "17",
            "LaunchNumber": "079",
            "PieceOfLaunch": "B",
            "EpochYear": "24",
            "EpochDay": 284.56861084,
            "FirstDerivativeMeanMotion": 2.4e-07,
            "SecondDerivativeMeanMotion": "00000+0",
            "BSTAR": "00000+0",
            "SetNumber": "999",
            "Inclination": 55.2953,
            "RAAN": 238.4215,
            "Eccentricity": 0.0004244,
            "ArgumentOfPerigee": 284.7837,
            "MeanAnomaly": 75.1526,
            "MeanMotion": 1.70473907,
            "RevolutionNumber": "4249"
        },
        {
            "Name": "GSAT0217 (GALILEO 21)",
            "Line1": "1 43057U 17079C   24283.61595701  .00000026  00000+0  00000+0 0  9992",
            "Line2": "2 43057  55.2939 238.4463 0003772 299.0256  60.9198  1.70473876 42491",
            "SatelliteNumber": "43057",
            "Classification": "U",
            "LaunchYear": "17",
            "LaunchNumber": "079",
            "PieceOfLaunch": "C",
            "EpochYear": "24",
            "EpochDay": 283.61595701,
            "FirstDerivativeMeanMotion": 2.6e-07,
            "SecondDerivativeMeanMotion": "00000+0",
            "BSTAR": "00000+0",
            "SetNumber": "999",
            "Inclination": 55.2939,
            "RAAN": 238.4463,
            "Eccentricity": 0.0003772,
            "ArgumentOfPerigee": 299.0256,
            "MeanAnomaly": 60.9198,
            "MeanMotion": 1.70473876,
            "RevolutionNumber": "4249"
        }
    ]
}